[
  {
    "COMMENT": "GENERATED VIA SPACETRACK.ORG API",
    "ORIGINATOR": "18 SPCS",
    "NORAD_CAT_ID": "41335",
    "OBJECT_NAME": "SENTINEL 3A",
    "OBJECT_TYPE": "PAYLOAD",
    "CLASSIFICATION_TYPE": "U",
    "INTLDES": "16011A",
    "EPOCH": "2023-07-07 20:16:42",
    "EPOCH_MICROSECONDS": "479904",
    "MEAN_MOTION": "14.2673515",
    "ECCENTRICITY": "0.000117",
    "INCLINATION": "98.6207",
    "RA_OF_ASC_NODE": "255.5903",
    "ARG_OF_PERICENTER": "89.3275",
    "MEAN_ANOMALY": "270.804",
    "EPHEMERIS_TYPE": "0",
    "ELEMENT_SET_NO": "999",
    "REV_AT_EPOCH": "38472",
    "BSTAR": "0.0000063516",
    "MEAN_MOTION_DOT": "-0.00000028",
    "MEAN_MOTION_DDOT": "0",
    "FILE": "3952042",
    "TLE_LINE0": "0 SENTINEL 3A",
    "TLE_LINE1": "1 41335U 16011A   23188.84493611 -.00000028  00000-0  63516-5 0  9990",
    "TLE_LINE2": "2 41335  98.6207 255.5903 0001170  89.3275 270.8040 14.26735150384721",
    "OBJECT_ID": "2016-011A",
    "OBJECT_NUMBER": "41335",
    "SEMIMAJOR_AXIS": "7180.802",
    "PERIOD": "100.930",
    "APOGEE": "803.507",
    "PERIGEE": "801.827",
    "DECAYED": "0"
  },
  {
    "COMMENT": "GENERATED VIA SPACETRACK.ORG API",
    "ORIGINATOR": "18 SPCS",
    "NORAD_CAT_ID": "41335",
    "OBJECT_NAME": "SENTINEL 3A",
    "OBJECT_TYPE": "PAYLOAD",
    "CLASSIFICATION_TYPE": "U",
    "INTLDES": "16011A",
    "EPOCH": "2023-07-08 01:19:40",
    "EPOCH_MICROSECONDS": "164672",
    "MEAN_MOTION": "14.26735179",
    "ECCENTRICITY": "0.000117",
    "INCLINATION": "98.6207",
    "RA_OF_ASC_NODE": "255.7975",
    "ARG_OF_PERICENTER": "89.3192",
    "MEAN_ANOMALY": "270.8123",
    "EPHEMERIS_TYPE": "0",
    "ELEMENT_SET_NO": "999",
    "REV_AT_EPOCH": "38475",
    "BSTAR": "0.0000065223",
    "MEAN_MOTION_DOT": "-0.00000028",
    "MEAN_MOTION_DDOT": "0",
    "FILE": "3952348",
    "TLE_LINE0": "0 SENTINEL 3A",
    "TLE_LINE1": "1 41335U 16011A   23189.05532598 -.00000028  00000-0  65223-5 0  9999",
    "TLE_LINE2": "2 41335  98.6207 255.7975 0001170  89.3192 270.8123 14.26735179384756",
    "OBJECT_ID": "2016-011A",
    "OBJECT_NUMBER": "41335",
    "SEMIMAJOR_AXIS": "7180.802",
    "PERIOD": "100.930",
    "APOGEE": "803.507",
    "PERIGEE": "801.826",
    "DECAYED": "0"
  },
  {
    "COMMENT": "GENERATED VIA SPACETRACK.ORG API",
    "ORIGINATOR": "18 SPCS",
    "NORAD_CAT_ID": "41335",
    "OBJECT_NAME": "SENTINEL 3A",
    "OBJECT_TYPE": "PAYLOAD",
    "CLASSIFICATION_TYPE": "U",
    "INTLDES": "16011A",
    "EPOCH": "2023-07-08 09:44:36",
    "EPOCH_MICROSECONDS": "297888",
    "MEAN_MOTION": "14.26735255",
    "ECCENTRICITY": "0.0001167",
    "INCLINATION": "98.6207",
    "RA_OF_ASC_NODE": "256.143",
    "ARG_OF_PERICENTER": "89.8406",
    "MEAN_ANOMALY": "270.2908",
    "EPHEMERIS_TYPE": "0",
    "ELEMENT_SET_NO": "999",
    "REV_AT_EPOCH": "38480",
    "BSTAR": "0.0000062049",
    "MEAN_MOTION_DOT": "-0.00000029",
    "MEAN_MOTION_DDOT": "0",
    "FILE": "3952607",
    "TLE_LINE0": "0 SENTINEL 3A",
    "TLE_LINE1": "1 41335U 16011A   23189.40597567 -.00000029  00000-0  62049-5 0  9999",
    "TLE_LINE2": "2 41335  98.6207 256.1430 0001167  89.8406 270.2908 14.26735255384802",
    "OBJECT_ID": "2016-011A",
    "OBJECT_NUMBER": "41335",
    "SEMIMAJOR_AXIS": "7180.801",
    "PERIOD": "100.930",
    "APOGEE": "803.504",
    "PERIGEE": "801.828",
    "DECAYED": "0"
  },
  {
    "COMMENT": "GENERATED VIA SPACETRACK.ORG API",
    "ORIGINATOR": "18 SPCS",
    "NORAD_CAT_ID": "41335",
    "OBJECT_NAME": "SENTINEL 3A",
    "OBJECT_TYPE": "PAYLOAD",
    "CLASSIFICATION_TYPE": "U",
    "INTLDES": "16011A",
    "EPOCH": "2023-07-08 19:50:31",
    "EPOCH_MICROSECONDS": "635456",
    "MEAN_MOTION": "14.26735919",
    "ECCENTRICITY": "0.0001166",
    "INCLINATION": "98.6207",
    "RA_OF_ASC_NODE": "256.5576",
    "ARG_OF_PERICENTER": "89.3792",
    "MEAN_ANOMALY": "270.7522",
    "EPHEMERIS_TYPE": "0",
    "ELEMENT_SET_NO": "999",
    "REV_AT_EPOCH": "38486",
    "BSTAR": "0.000073861",
    "MEAN_MOTION_DOT": "0.00000135",
    "MEAN_MOTION_DDOT": "0",
    "FILE": "3952940",
    "TLE_LINE0": "0 SENTINEL 3A",
    "TLE_LINE1": "1 41335U 16011A   23189.82675504  .00000135  00000-0  73861-4 0  9993",
    "TLE_LINE2": "2 41335  98.6207 256.5576 0001166  89.3792 270.7522 14.26735919384869",
    "OBJECT_ID": "2016-011A",
    "OBJECT_NUMBER": "41335",
    "SEMIMAJOR_AXIS": "7180.799",
    "PERIOD": "100.930",
    "APOGEE": "803.501",
    "PERIGEE": "801.827",
    "DECAYED": "0"
  },
  {
    "COMMENT": "GENERATED VIA SPACETRACK.ORG API",
    "ORIGINATOR": "18 SPCS",
    "NORAD_CAT_ID": "41335",
    "OBJECT_NAME": "SENTINEL 3A",
    "OBJECT_TYPE": "PAYLOAD",
    "CLASSIFICATION_TYPE": "U",
    "INTLDES": "16011A",
    "EPOCH": "2023-07-09 04:15:27",
    "EPOCH_MICROSECONDS": "761760",
    "MEAN_MOTION": "14.2673602",
    "ECCENTRICITY": "0.0001157",
    "INCLINATION": "98.6206",
    "RA_OF_ASC_NODE": "256.903",
    "ARG_OF_PERICENTER": "89.521",
    "MEAN_ANOMALY": "270.6103",
    "EPHEMERIS_TYPE": "0",
    "ELEMENT_SET_NO": "999",
    "REV_AT_EPOCH": "38491",
    "BSTAR": "0.000072073",
    "MEAN_MOTION_DOT": "0.00000131",
    "MEAN_MOTION_DDOT": "0",
    "FILE": "3953257",
    "TLE_LINE0": "0 SENTINEL 3A",
    "TLE_LINE1": "1 41335U 16011A   23190.17740465  .00000131  00000-0  72073-4 0  9992",
    "TLE_LINE2": "2 41335  98.6206 256.9030 0001157  89.5210 270.6103 14.26736020384918",
    "OBJECT_ID": "2016-011A",
    "OBJECT_NUMBER": "41335",
    "SEMIMAJOR_AXIS": "7180.799",
    "PERIOD": "100.930",
    "APOGEE": "803.495",
    "PERIGEE": "801.833",
    "DECAYED": "0"
  },
  {
    "COMMENT": "GENERATED VIA SPACETRACK.ORG API",
    "ORIGINATOR": "18 SPCS",
    "NORAD_CAT_ID": "41335",
    "OBJECT_NAME": "SENTINEL 3A",
    "OBJECT_TYPE": "PAYLOAD",
    "CLASSIFICATION_TYPE": "U",
    "INTLDES": "16011A",
    "EPOCH": "2023-07-09 10:59:24",
    "EPOCH_MICROSECONDS": "660384",
    "MEAN_MOTION": "14.26736117",
    "ECCENTRICITY": "0.0001158",
    "INCLINATION": "98.6206",
    "RA_OF_ASC_NODE": "257.1794",
    "ARG_OF_PERICENTER": "89.4922",
    "MEAN_ANOMALY": "270.6391",
    "EPHEMERIS_TYPE": "0",
    "ELEMENT_SET_NO": "999",
    "REV_AT_EPOCH": "38495",
    "BSTAR": "0.000072494",
    "MEAN_MOTION_DOT": "0.00000132",
    "MEAN_MOTION_DDOT": "0",
    "FILE": "3953545",
    "TLE_LINE0": "0 SENTINEL 3A",
    "TLE_LINE1": "1 41335U 16011A   23190.45792431  .00000132  00000-0  72494-4 0  9991",
    "TLE_LINE2": "2 41335  98.6206 257.1794 0001158  89.4922 270.6391 14.26736117384958",
    "OBJECT_ID": "2016-011A",
    "OBJECT_NUMBER": "41335",
    "SEMIMAJOR_AXIS": "7180.798",
    "PERIOD": "100.930",
    "APOGEE": "803.495",
    "PERIGEE": "801.832",
    "DECAYED": "0"
  },
  {
    "COMMENT": "GENERATED VIA SPACETRACK.ORG API",
    "ORIGINATOR": "18 SPCS",
    "NORAD_CAT_ID": "41335",
    "OBJECT_NAME": "SENTINEL 3A",
    "OBJECT_TYPE": "PAYLOAD",
    "CLASSIFICATION_TYPE": "U",
    "INTLDES": "16011A",
    "EPOCH": "2023-07-09 17:43:21",
    "EPOCH_MICROSECONDS": "559008",
    "MEAN_MOTION": "14.26736131",
    "ECCENTRICITY": "0.0001154",
    "INCLINATION": "98.6206",
    "RA_OF_ASC_NODE": "257.4557",
    "ARG_OF_PERICENTER": "89.591",
    "MEAN_ANOMALY": "270.5403",
    "EPHEMERIS_TYPE": "0",
    "ELEMENT_SET_NO": "999",
    "REV_AT_EPOCH": "38499",
    "BSTAR": "0.000065047",
    "MEAN_MOTION_DOT": "0.00000114",
    "MEAN_MOTION_DDOT": "0",
    "FILE": "3953818",
    "TLE_LINE0": "0 SENTINEL 3A",
    "TLE_LINE1": "1 41335U 16011A   23190.73844397  .00000114  00000-0  65047-4 0  9997",
    "TLE_LINE2": "2 41335  98.6206 257.4557 0001154  89.5910 270.5403 14.26736131384995",
    "OBJECT_ID": "2016-011A",
    "OBJECT_NUMBER": "41335",
    "SEMIMAJOR_AXIS": "7180.798",
    "PERIOD": "100.930",
    "APOGEE": "803.492",
    "PERIGEE": "801.835",
    "DECAYED": "0"
  },
  {
    "COMMENT": "GENERATED VIA SPACETRACK.ORG API",
    "ORIGINATOR": "18 SPCS",
    "NORAD_CAT_ID": "41335",
    "OBJECT_NAME": "SENTINEL 3A",
    "OBJECT_TYPE": "PAYLOAD",
    "CLASSIFICATION_TYPE": "U",
    "INTLDES": "16011A",
    "EPOCH": "2023-07-10 03:49:16",
    "EPOCH_MICROSECONDS": "899168",
    "MEAN_MOTION": "14.26736273",
    "ECCENTRICITY": "0.0001148",
    "INCLINATION": "98.6205",
    "RA_OF_ASC_NODE": "257.8703",
    "ARG_OF_PERICENTER": "89.7051",
    "MEAN_ANOMALY": "270.4261",
    "EPHEMERIS_TYPE": "0",
    "ELEMENT_SET_NO": "999",
    "REV_AT_EPOCH": "38505",
    "BSTAR": "0.00006412",
    "MEAN_MOTION_DOT": "0.00000112",
    "MEAN_MOTION_DDOT": "0",
    "FILE": "3954036",
    "TLE_LINE0": "0 SENTINEL 3A",
    "TLE_LINE1": "1 41335U 16011A   23191.15922337  .00000112  00000-0  64120-4 0  9994",
    "TLE_LINE2": "2 41335  98.6205 257.8703 0001148  89.7051 270.4261 14.26736273385058",
    "OBJECT_ID": "2016-011A",
    "OBJECT_NUMBER": "41335",
    "SEMIMAJOR_AXIS": "7180.798",
    "PERIOD": "100.930",
    "APOGEE": "803.487",
    "PERIGEE": "801.839",
    "DECAYED": "0"
  }
]